{
  "type": "FeatureCollection",
  "features": [
    {
      "type": "Feature",
      "properties": {
        "norad_id": 30504,
        "name": "FENGYUN 1C DEB",
        "group": "fengyun-1c-debris",
        "lat": -10.723870005085764,
        "lon": -148.67853472985598,
        "alt_km": 754.7596852499264,
        "timestamp": "2025-12-12T20:43:07.311884+00:00",
        "meta_object_name": "FENGYUN 1C DEB",
        "meta_object_id": "1999-025AHS",
        "meta_epoch": "2025-12-11T01:38:46.526784",
        "meta_mean_motion": 14.2048578,
        "meta_eccentricity": 0.01120841,
        "meta_inclination": 99.0255,
        "meta_ra_of_asc_node": 31.2149,
        "meta_arg_of_pericenter": 221.2173,
        "meta_mean_anomaly": 157.6074,
        "meta_ephemeris_type": 0,
        "meta_classification_type": "U",
        "meta_norad_cat_id": 30504,
        "meta_element_set_no": 999,
        "meta_rev_at_epoch": 97370,
        "meta_bstar": 0.00077210917,
        "meta_mean_motion_dot": 1.719e-05,
        "meta_mean_motion_ddot": 0,
        "tle_line1": "1 30504U 99025AHS 25345.06859406  .00001719  00000+0  77211-3 0  9992",
        "tle_line2": "2 30504  99.0255  31.2149 0112084 221.2173 157.6074 14.20485780973703"
      },
      "geometry": {
        "type": "Point",
        "coordinates": [
          -148.67853472985598,
          -10.723870005085764
        ]
      }
    },
    {
      "type": "Feature",
      "properties": {
        "norad_id": 30505,
        "name": "FENGYUN 1C DEB",
        "group": "fengyun-1c-debris",
        "lat": 80.91184987008704,
        "lon": -34.19684138405243,
        "alt_km": 850.6813591181863,
        "timestamp": "2025-12-12T20:43:07.311894+00:00",
        "meta_object_name": "FENGYUN 1C DEB",
        "meta_object_id": "1999-025AHT",
        "meta_epoch": "2025-12-12T05:13:09.592032",
        "meta_mean_motion": 14.22030419,
        "meta_eccentricity": 0.00636728,
        "meta_inclination": 98.9265,
        "meta_ra_of_asc_node": 65.8703,
        "meta_arg_of_pericenter": 243.6684,
        "meta_mean_anomaly": 144.1368,
        "meta_ephemeris_type": 0,
        "meta_classification_type": "U",
        "meta_norad_cat_id": 30505,
        "meta_element_set_no": 999,
        "meta_rev_at_epoch": 96916,
        "meta_bstar": 0.0026942283,
        "meta_mean_motion_dot": 6.039e-05,
        "meta_mean_motion_ddot": 0,
        "tle_line1": "1 30505U 99025AHT 25346.21747213  .00006039  00000+0  26942-2 0  9997",
        "tle_line2": "2 30505  98.9265  65.8703 0063672 243.6684 144.1368 14.22030419969164"
      },
      "geometry": {
        "type": "Point",
        "coordinates": [
          -34.19684138405243,
          80.91184987008704
        ]
      }
    },
    {
      "type": "Feature",
      "properties": {
        "norad_id": 30506,
        "name": "FENGYUN 1C DEB",
        "group": "fengyun-1c-debris",
        "lat": 63.157258202791176,
        "lon": -170.33372472270872,
        "alt_km": 888.792618842861,
        "timestamp": "2025-12-12T20:43:07.311904+00:00",
        "meta_object_name": "FENGYUN 1C DEB",
        "meta_object_id": "1999-025AHU",
        "meta_epoch": "2025-12-11T17:12:22.530816",
        "meta_mean_motion": 14.08648859,
        "meta_eccentricity": 0.00703325,
        "meta_inclination": 98.757,
        "meta_ra_of_asc_node": 350.8205,
        "meta_arg_of_pericenter": 350.8704,
        "meta_mean_anomaly": 73.8464,
        "meta_ephemeris_type": 0,
        "meta_classification_type": "U",
        "meta_norad_cat_id": 30506,
        "meta_element_set_no": 999,
        "meta_rev_at_epoch": 96807,
        "meta_bstar": 0.00043292937,
        "meta_mean_motion_dot": 7.19e-06,
        "meta_mean_motion_ddot": 0,
        "tle_line1": "1 30506U 99025AHU 25345.71692744  .00000719  00000+0  43293-3 0  9998",
        "tle_line2": "2 30506  98.7570 350.8205 0070332 350.8704  73.8464 14.08648859968072"
      },
      "geometry": {
        "type": "Point",
        "coordinates": [
          -170.33372472270872,
          63.157258202791176
        ]
      }
    },
    {
      "type": "Feature",
      "properties": {
        "norad_id": 30507,
        "name": "FENGYUN 1C DEB",
        "group": "fengyun-1c-debris",
        "lat": -53.68091260279273,
        "lon": -141.1229294199864,
        "alt_km": 806.3519454879543,
        "timestamp": "2025-12-12T20:43:07.311915+00:00",
        "meta_object_name": "FENGYUN 1C DEB",
        "meta_object_id": "1999-025AHV",
        "meta_epoch": "2025-12-10T22:33:52.396992",
        "meta_mean_motion": 14.13164072,
        "meta_eccentricity": 0.0128396,
        "meta_inclination": 99.0136,
        "meta_ra_of_asc_node": 49.4106,
        "meta_arg_of_pericenter": 181.3494,
        "meta_mean_anomaly": 353.865,
        "meta_ephemeris_type": 0,
        "meta_classification_type": "U",
        "meta_norad_cat_id": 30507,
        "meta_element_set_no": 999,
        "meta_rev_at_epoch": 96472,
        "meta_bstar": 0.0019555,
        "meta_mean_motion_dot": 3.913e-05,
        "meta_mean_motion_ddot": 0,
        "tle_line1": "1 30507U 99025AHV 25344.94018978  .00003913  00000+0  19555-2 0  9996",
        "tle_line2": "2 30507  99.0136  49.4106 0128396 181.3494 353.8650 14.13164072964725"
      },
      "geometry": {
        "type": "Point",
        "coordinates": [
          -141.1229294199864,
          -53.68091260279273
        ]
      }
    },
    {
      "type": "Feature",
      "properties": {
        "norad_id": 30509,
        "name": "FENGYUN 1C DEB",
        "group": "fengyun-1c-debris",
        "lat": 42.7833036622168,
        "lon": -149.22252845678844,
        "alt_km": 794.3995287255975,
        "timestamp": "2025-12-12T20:43:07.311925+00:00",
        "meta_object_name": "FENGYUN 1C DEB",
        "meta_object_id": "1999-025AHX",
        "meta_epoch": "2025-12-12T02:31:07.591008",
        "meta_mean_motion": 14.07643614,
        "meta_eccentricity": 0.01016008,
        "meta_inclination": 98.4652,
        "meta_ra_of_asc_node": 217.9885,
        "meta_arg_of_pericenter": 65.2055,
        "meta_mean_anomaly": 97.9265,
        "meta_ephemeris_type": 0,
        "meta_classification_type": "U",
        "meta_norad_cat_id": 30509,
        "meta_element_set_no": 999,
        "meta_rev_at_epoch": 95713,
        "meta_bstar": 0.0031215189,
        "meta_mean_motion_dot": 5.491e-05,
        "meta_mean_motion_ddot": 0,
        "tle_line1": "1 30509U 99025AHX 25346.10494897  .00005491  00000+0  31215-2 0  9996",
        "tle_line2": "2 30509  98.4652 217.9885 0101600  65.2055  97.9265 14.07643614957133"
      },
      "geometry": {
        "type": "Point",
        "coordinates": [
          -149.22252845678844,
          42.7833036622168
        ]
      }
    },
    {
      "type": "Feature",
      "properties": {
        "norad_id": 30510,
        "name": "FENGYUN 1C DEB",
        "group": "fengyun-1c-debris",
        "lat": 79.26852462040169,
        "lon": -121.85433963519561,
        "alt_km": 822.791017380955,
        "timestamp": "2025-12-12T20:43:07.311935+00:00",
        "meta_object_name": "FENGYUN 1C DEB",
        "meta_object_id": "1999-025AHY",
        "meta_epoch": "2025-12-12T00:07:48.730368",
        "meta_mean_motion": 14.12843253,
        "meta_eccentricity": 0.0078713,
        "meta_inclination": 99.2451,
        "meta_ra_of_asc_node": 358.0104,
        "meta_arg_of_pericenter": 168.2943,
        "meta_mean_anomaly": 247.1526,
        "meta_ephemeris_type": 0,
        "meta_classification_type": "U",
        "meta_norad_cat_id": 30510,
        "meta_element_set_no": 999,
        "meta_rev_at_epoch": 96564,
        "meta_bstar": 0.0019099,
        "meta_mean_motion_dot": 3.612e-05,
        "meta_mean_motion_ddot": 0,
        "tle_line1": "1 30510U 99025AHY 25346.00542512  .00003612  00000+0  19099-2 0  9994",
        "tle_line2": "2 30510  99.2451 358.0104 0078713 168.2943 247.1526 14.12843253965641"
      },
      "geometry": {
        "type": "Point",
        "coordinates": [
          -121.85433963519561,
          79.26852462040169
        ]
      }
    },
    {
      "type": "Feature",
      "properties": {
        "norad_id": 30514,
        "name": "FENGYUN 1C DEB",
        "group": "fengyun-1c-debris",
        "lat": -70.88856728581113,
        "lon": 165.10445620724926,
        "alt_km": 900.7978153268195,
        "timestamp": "2025-12-12T20:43:07.311945+00:00",
        "meta_object_name": "FENGYUN 1C DEB",
        "meta_object_id": "1999-025AJC",
        "meta_epoch": "2025-12-12T01:08:25.389312",
        "meta_mean_motion": 14.34351718,
        "meta_eccentricity": 0.01745262,
        "meta_inclination": 98.4136,
        "meta_ra_of_asc_node": 9.596,
        "meta_arg_of_pericenter": 96.1729,
        "meta_mean_anomaly": 265.937,
        "meta_ephemeris_type": 0,
        "meta_classification_type": "U",
        "meta_norad_cat_id": 30514,
        "meta_element_set_no": 999,
        "meta_rev_at_epoch": 98215,
        "meta_bstar": 0.0007853872,
        "meta_mean_motion_dot": 2.576e-05,
        "meta_mean_motion_ddot": 0,
        "tle_line1": "1 30514U 99025AJC 25346.04751608  .00002576  00000+0  78539-3 0  9993",
        "tle_line2": "2 30514  98.4136   9.5960 0174526  96.1729 265.9370 14.34351718982158"
      },
      "geometry": {
        "type": "Point",
        "coordinates": [
          165.10445620724926,
          -70.88856728581113
        ]
      }
    }
  ]
}